OSCAR 7 (AO-7)          
1 07530U 74089B   25010.48611617 -.00000017  00000+0  18491-3 0  9999
2 07530 101.9912  13.1668 0012367  49.3239 106.5466 12.53684875295018
PHASE 3B (AO-10)        
1 14129U 83058B   25009.80633538 -.00000240  00000+0  00000+0 0  9998
2 14129  27.1922 306.5423 6044171 331.9209   5.6692  2.05869974284715
UOSAT 2 (UO-11)         
1 14781U 84021B   25010.33834957  .00002470  00000+0  27179-3 0  9997
2 14781  97.7338 339.9645 0009438 108.8953 251.3288 14.88453609179281
LUSAT (LO-19)           
1 20442U 90005G   25010.50027191  .00000358  00000+0  14546-3 0  9997
2 20442  98.8958  12.4116 0010733 301.4163  58.5970 14.33826271827488
EYESAT A (AO-27)        
1 22825U 93061C   25010.42164298  .00000228  00000+0  10456-3 0  9992
2 22825  98.7610  71.0729 0008289 185.7917 174.3170 14.30704507632244
ITAMSAT (IO-26)         
1 22826U 93061D   25010.41338210  .00000261  00000+0  11611-3 0  9990
2 22826  98.7557  70.9372 0009092 170.9750 189.1598 14.31107821632538
RADIO ROSTO (RS-15)     
1 23439U 94085A   25010.55890774 -.00000048  00000+0 -14838-3 0  9990
2 23439  64.8169  68.4147 0145714 103.7651 257.9537 11.27579868236971
JAS-2 (FO-29)           
1 24278U 96046B   25010.51469399  .00000056  00000+0  92944-4 0  9994
2 24278  98.5890 284.0461 0350225  11.4535 349.4320 13.53230974402474
TECHSAT 1B (GO-32)      
1 25397U 98043D   25010.49649354  .00000203  00000+0  10819-3 0  9998
2 25397  98.9516 346.6442 0000383 323.7216  36.3936 14.24231737376924
ISS (ZARYA)             
1 25544U 98067A   25010.50479572  .00015800  00000+0  27470-3 0  9993
2 25544  51.6409   8.1238 0006475  65.9825  76.9258 15.50958763490702
PCSAT (NO-44)           
1 26931U 01043C   25010.51772212  .00000448  00000+0  19911-3 0  9993
2 26931  67.0503 155.7860 0006318 261.0671  98.9716 14.31577431215629
SAUDISAT 1C (SO-50)     
1 27607U 02058C   25010.60197921  .00002899  00000+0  38934-3 0  9997
2 27607  64.5555 303.1839 0038122  13.7623 346.4512 14.80733194187011
CUTE-1 (CO-55)          
1 27844U 03031E   25010.51316416  .00000669  00000+0  31174-3 0  9996
2 27844  98.6778  20.7296 0008624 262.6531  97.3667 14.23758815117284
CUBESAT XI-IV (CO-57)   
1 27848U 03031J   25010.46336951  .00000555  00000+0  26514-3 0  9996
2 27848  98.6807  20.7957 0008524 281.4514  78.5707 14.23128078117013
MOZHAYETS 4 (RS-22)     
1 27939U 03042A   25010.58376632  .00002241  00000+0  36862-3 0  9993
2 27939  98.3090 176.6220 0012499 122.0242 313.4179 14.71562680138632
CUBESAT XI-V            
1 28895U 05043F   25010.34507576  .00002785  00000+0  47329-3 0  9998
2 28895  98.2251 153.1482 0015880  64.7412 295.5437 14.69886723 24860
