[{"OBJECT_NAME":"OSCAR 7 (AO-7)","OBJECT_ID":"1974-089B","EPOCH":"2025-01-10T11:40:00.437088","MEAN_MOTION":12.53684875,"ECCENTRICITY":0.0012367,"INCLINATION":101.9912,"RA_OF_ASC_NODE":13.1668,"ARG_OF_PERICENTER":49.3239,"MEAN_ANOMALY":106.5466,"EPHEMERIS_TYPE":0,"CLASSIFICATION_TYPE":"U","NORAD_CAT_ID":7530,"ELEMENT_SET_NO":999,"REV_AT_EPOCH":29501,"BSTAR":0.00018491,"MEAN_MOTION_DOT":-1.7e-7,"MEAN_MOTION_DDOT":0},{"OBJECT_NAME":"PHASE 3B (AO-10)","OBJECT_ID":"1983-058B","EPOCH":"2025-01-09T19:21:07.376832","MEAN_MOTION":2.05869974,"ECCENTRICITY":0.6044171,"INCLINATION":27.1922,"RA_OF_ASC_NODE":306.5423,"ARG_OF_PERICENTER":331.9209,"MEAN_ANOMALY":5.6692,"EPHEMERIS_TYPE":0,"CLASSIFICATION_TYPE":"U","NORAD_CAT_ID":14129,"ELEMENT_SET_NO":999,"REV_AT_EPOCH":28471,"BSTAR":0,"MEAN_MOTION_DOT":-2.4e-6,"MEAN_MOTION_DDOT":0},{"OBJECT_NAME":"UOSAT 2 (UO-11)","OBJECT_ID":"1984-021B","EPOCH":"2025-01-10T08:07:13.402848","MEAN_MOTION":14.88453609,"ECCENTRICITY":0.0009438,"INCLINATION":97.7338,"RA_OF_ASC_NODE":339.9645,"ARG_OF_PERICENTER":108.8953,"MEAN_ANOMALY":251.3288,"EPHEMERIS_TYPE":0,"CLASSIFICATION_TYPE":"U","NORAD_CAT_ID":14781,"ELEMENT_SET_NO":999,"REV_AT_EPOCH":17928,"BSTAR":0.00027179,"MEAN_MOTION_DOT":2.47e-5,"MEAN_MOTION_DDOT":0},{"OBJECT_NAME":"LUSAT (LO-19)","OBJECT_ID":"1990-005G","EPOCH":"2025-01-10T12:00:23.493024","MEAN_MOTION":14.33826271,"ECCENTRICITY":0.0010733,"INCLINATION":98.8958,"RA_OF_ASC_NODE":12.4116,"ARG_OF_PERICENTER":301.4163,"MEAN_ANOMALY":58.597,"EPHEMERIS_TYPE":0,"CLASSIFICATION_TYPE":"U","NORAD_CAT_ID":20442,"ELEMENT_SET_NO":999,"REV_AT_EPOCH":82748,"BSTAR":0.00014546,"MEAN_MOTION_DOT":3.58e-6,"MEAN_MOTION_DDOT":0},{"OBJECT_NAME":"EYESAT A (AO-27)","OBJECT_ID":"1993-061C","EPOCH":"2025-01-10T10:07:09.953472","MEAN_MOTION":14.30704507,"ECCENTRICITY":0.0008289,"INCLINATION":98.761,"RA_OF_ASC_NODE":71.0729,"ARG_OF_PERICENTER":185.7917,"MEAN_ANOMALY":174.317,"EPHEMERIS_TYPE":0,"CLASSIFICATION_TYPE":"U","NORAD_CAT_ID":22825,"ELEMENT_SET_NO":999,"REV_AT_EPOCH":63224,"BSTAR":0.00010456,"MEAN_MOTION_DOT":2.28e-6,"MEAN_MOTION_DDOT":0},{"OBJECT_NAME":"ITAMSAT (IO-26)","OBJECT_ID":"1993-061D","EPOCH":"2025-01-10T09:55:16.213440","MEAN_MOTION":14.31107821,"ECCENTRICITY":0.0009092,"INCLINATION":98.7557,"RA_OF_ASC_NODE":70.9372,"ARG_OF_PERICENTER":170.975,"MEAN_ANOMALY":189.1598,"EPHEMERIS_TYPE":0,"CLASSIFICATION_TYPE":"U","NORAD_CAT_ID":22826,"ELEMENT_SET_NO":999,"REV_AT_EPOCH":63253,"BSTAR":0.00011611,"MEAN_MOTION_DOT":2.61e-6,"MEAN_MOTION_DDOT":0},{"OBJECT_NAME":"RADIO ROSTO (RS-15)","OBJECT_ID":"1994-085A","EPOCH":"2025-01-10T13:24:49.628736","MEAN_MOTION":11.27579868,"ECCENTRICITY":0.0145714,"INCLINATION":64.8169,"RA_OF_ASC_NODE":68.4147,"ARG_OF_PERICENTER":103.7651,"MEAN_ANOMALY":257.9537,"EPHEMERIS_TYPE":0,"CLASSIFICATION_TYPE":"U","NORAD_CAT_ID":23439,"ELEMENT_SET_NO":999,"REV_AT_EPOCH":23697,"BSTAR":-0.00014838,"MEAN_MOTION_DOT":-4.8e-7,"MEAN_MOTION_DDOT":0},{"OBJECT_NAME":"JAS-2 (FO-29)","OBJECT_ID":"1996-046B","EPOCH":"2025-01-10T12:21:09.560736","MEAN_MOTION":13.53230974,"ECCENTRICITY":0.0350225,"INCLINATION":98.589,"RA_OF_ASC_NODE":284.0461,"ARG_OF_PERICENTER":11.4535,"MEAN_ANOMALY":349.432,"EPHEMERIS_TYPE":0,"CLASSIFICATION_TYPE":"U","NORAD_CAT_ID":24278,"ELEMENT_SET_NO":999,"REV_AT_EPOCH":40247,"BSTAR":9.2944e-5,"MEAN_MOTION_DOT":5.6e-7,"MEAN_MOTION_DDOT":0},{"OBJECT_NAME":"TECHSAT 1B (GO-32)","OBJECT_ID":"1998-043D","EPOCH":"2025-01-10T11:54:57.041856","MEAN_MOTION":14.24231737,"ECCENTRICITY":3.83e-5,"INCLINATION":98.9516,"RA_OF_ASC_NODE":346.6442,"ARG_OF_PERICENTER":323.7216,"MEAN_ANOMALY":36.3936,"EPHEMERIS_TYPE":0,"CLASSIFICATION_TYPE":"U","NORAD_CAT_ID":25397,"ELEMENT_SET_NO":999,"REV_AT_EPOCH":37692,"BSTAR":0.00010819,"MEAN_MOTION_DOT":2.03e-6,"MEAN_MOTION_DDOT":0},{"OBJECT_NAME":"ISS (ZARYA)","OBJECT_ID":"1998-067A","EPOCH":"2025-01-10T12:06:54.350208","MEAN_MOTION":15.50958763,"ECCENTRICITY":0.0006475,"INCLINATION":51.6409,"RA_OF_ASC_NODE":8.1238,"ARG_OF_PERICENTER":65.9825,"MEAN_ANOMALY":76.9258,"EPHEMERIS_TYPE":0,"CLASSIFICATION_TYPE":"U","NORAD_CAT_ID":25544,"ELEMENT_SET_NO":999,"REV_AT_EPOCH":49070,"BSTAR":0.0002747,"MEAN_MOTION_DOT":0.000158,"MEAN_MOTION_DDOT":0},{"OBJECT_NAME":"PCSAT (NO-44)","OBJECT_ID":"2001-043C","EPOCH":"2025-01-10T12:25:31.191168","MEAN_MOTION":14.31577431,"ECCENTRICITY":0.0006318,"INCLINATION":67.0503,"RA_OF_ASC_NODE":155.786,"ARG_OF_PERICENTER":261.0671,"MEAN_ANOMALY":98.9716,"EPHEMERIS_TYPE":0,"CLASSIFICATION_TYPE":"U","NORAD_CAT_ID":26931,"ELEMENT_SET_NO":999,"REV_AT_EPOCH":21562,"BSTAR":0.00019911,"MEAN_MOTION_DOT":4.48e-6,"MEAN_MOTION_DDOT":0},{"OBJECT_NAME":"SAUDISAT 1C (SO-50)","OBJECT_ID":"2002-058C","EPOCH":"2025-01-10T14:26:51.003744","MEAN_MOTION":14.80733194,"ECCENTRICITY":0.0038122,"INCLINATION":64.5555,"RA_OF_ASC_NODE":303.1839,"ARG_OF_PERICENTER":13.7623,"MEAN_ANOMALY":346.4512,"EPHEMERIS_TYPE":0,"CLASSIFICATION_TYPE":"U","NORAD_CAT_ID":27607,"ELEMENT_SET_NO":999,"REV_AT_EPOCH":18701,"BSTAR":0.00038934,"MEAN_MOTION_DOT":2.899e-5,"MEAN_MOTION_DDOT":0},{"OBJECT_NAME":"CUTE-1 (CO-55)","OBJECT_ID":"2003-031E","EPOCH":"2025-01-10T12:18:57.383424","MEAN_MOTION":14.23758815,"ECCENTRICITY":0.0008624,"INCLINATION":98.6778,"RA_OF_ASC_NODE":20.7296,"ARG_OF_PERICENTER":262.6531,"MEAN_ANOMALY":97.3667,"EPHEMERIS_TYPE":0,"CLASSIFICATION_TYPE":"U","NORAD_CAT_ID":27844,"ELEMENT_SET_NO":999,"REV_AT_EPOCH":11728,"BSTAR":0.00031174,"MEAN_MOTION_DOT":6.69e-6,"MEAN_MOTION_DDOT":0},{"OBJECT_NAME":"CUBESAT XI-IV (CO-57)","OBJECT_ID":"2003-031J","EPOCH":"2025-01-10T11:07:15.125664","MEAN_MOTION":14.23128078,"ECCENTRICITY":0.0008524,"INCLINATION":98.6807,"RA_OF_ASC_NODE":20.7957,"ARG_OF_PERICENTER":281.4514,"MEAN_ANOMALY":78.5707,"EPHEMERIS_TYPE":0,"CLASSIFICATION_TYPE":"U","NORAD_CAT_ID":27848,"ELEMENT_SET_NO":999,"REV_AT_EPOCH":11701,"BSTAR":0.00026514,"MEAN_MOTION_DOT":5.55e-6,"MEAN_MOTION_DDOT":0},{"OBJECT_NAME":"MOZHAYETS 4 (RS-22)","OBJECT_ID":"2003-042A","EPOCH":"2025-01-10T14:00:37.410048","MEAN_MOTION":14.7156268,"ECCENTRICITY":0.0012499,"INCLINATION":98.309,"RA_OF_ASC_NODE":176.622,"ARG_OF_PERICENTER":122.0242,"MEAN_ANOMALY":313.4179,"EPHEMERIS_TYPE":0,"CLASSIFICATION_TYPE":"U","NORAD_CAT_ID":27939,"ELEMENT_SET_NO":999,"REV_AT_EPOCH":13863,"BSTAR":0.00036862,"MEAN_MOTION_DOT":2.241e-5,"MEAN_MOTION_DDOT":0},{"OBJECT_NAME":"CUBESAT XI-V","OBJECT_ID":"2005-043F","EPOCH":"2025-01-10T08:16:54.545664","MEAN_MOTION":14.69886723,"ECCENTRICITY":0.001588,"INCLINATION":98.2251,"RA_OF_ASC_NODE":153.1482,"ARG_OF_PERICENTER":64.7412,"MEAN_ANOMALY":295.5437,"EPHEMERIS_TYPE":0,"CLASSIFICATION_TYPE":"U","NORAD_CAT_ID":28895,"ELEMENT_SET_NO":999,"REV_AT_EPOCH":2486,"BSTAR":0.00047329,"MEAN_MOTION_DOT":2.785e-5,"MEAN_MOTION_DDOT":0}]
